[{"OBJECT_NAME":"SCISAT 1","OBJECT_ID":"2003-036A","EPOCH":"2026-03-09T22:52:31.276992","MEAN_MOTION":14.8131333,"ECCENTRICITY":0.00057868,"INCLINATION":73.9323,"RA_OF_ASC_NODE":8.49,"ARG_OF_PERICENTER":97.7053,"MEAN_ANOMALY":262.4781,"EPHEMERIS_TYPE":0,"CLASSIFICATION_TYPE":"U","NORAD_CAT_ID":27858,"ELEMENT_SET_NO":999,"REV_AT_EPOCH":21675,"BSTAR":0.00015871313,"MEAN_MOTION_DOT":1.203e-5,"MEAN_MOTION_DDOT":0},{"OBJECT_NAME":"KUIPER-00138","OBJECT_ID":"2025-228T","EPOCH":"2026-03-09T22:48:42.986592","MEAN_MOTION":14.79931547,"ECCENTRICITY":7.135e-5,"INCLINATION":51.9006,"RA_OF_ASC_NODE":341.9402,"ARG_OF_PERICENTER":86.7972,"MEAN_ANOMALY":273.3071,"EPHEMERIS_TYPE":0,"CLASSIFICATION_TYPE":"U","NORAD_CAT_ID":65964,"ELEMENT_SET_NO":999,"REV_AT_EPOCH":2351,"BSTAR":2.8460536e-5,"MEAN_MOTION_DOT":-4.0e-8,"MEAN_MOTION_DDOT":0}]
